<?xml version="1.0" encoding="UTF-8"?>
<ndm xmlns:xsi="http://www.w3.org/2001/XMLSchema-instance" xsi:noNamespaceSchemaLocation="https://sanaregistry.org/r/ndmxml_unqualified/ndmxml-2.0.0-master-2.0.xsd">
<omm id="CCSDS_OMM_VERS" version="2.0">
<header><CREATION_DATE/><ORIGINATOR/></header><body><segment><metadata><OBJECT_NAME>QIANFAN-25</OBJECT_NAME><OBJECT_ID>2024-185G</OBJECT_ID><CENTER_NAME>EARTH</CENTER_NAME><REF_FRAME>TEME</REF_FRAME><TIME_SYSTEM>UTC</TIME_SYSTEM><MEAN_ELEMENT_THEORY>SGP4</MEAN_ELEMENT_THEORY></metadata><data><meanElements><EPOCH>2025-11-18T02:19:10.382880</EPOCH><MEAN_MOTION>14.05877797</MEAN_MOTION><ECCENTRICITY>.0010521</ECCENTRICITY><INCLINATION>88.9802</INCLINATION><RA_OF_ASC_NODE>80.9724</RA_OF_ASC_NODE><ARG_OF_PERICENTER>34.7797</ARG_OF_PERICENTER><MEAN_ANOMALY>325.4071</MEAN_ANOMALY></meanElements><tleParameters><EPHEMERIS_TYPE>0</EPHEMERIS_TYPE><CLASSIFICATION_TYPE>U</CLASSIFICATION_TYPE><NORAD_CAT_ID>61558</NORAD_CAT_ID><ELEMENT_SET_NO>999</ELEMENT_SET_NO><REV_AT_EPOCH>6604</REV_AT_EPOCH><BSTAR>.38811E-3</BSTAR><MEAN_MOTION_DOT>.648E-5</MEAN_MOTION_DOT><MEAN_MOTION_DDOT>0</MEAN_MOTION_DDOT></tleParameters></data></segment></body></omm>
<omm id="CCSDS_OMM_VERS" version="2.0">
<header><CREATION_DATE/><ORIGINATOR/></header><body><segment><metadata><OBJECT_NAME>QIANFAN-26</OBJECT_NAME><OBJECT_ID>2024-185H</OBJECT_ID><CENTER_NAME>EARTH</CENTER_NAME><REF_FRAME>TEME</REF_FRAME><TIME_SYSTEM>UTC</TIME_SYSTEM><MEAN_ELEMENT_THEORY>SGP4</MEAN_ELEMENT_THEORY></metadata><data><meanElements><EPOCH>2025-11-18T03:06:00.468576</EPOCH><MEAN_MOTION>13.77791613</MEAN_MOTION><ECCENTRICITY>.0007452</ECCENTRICITY><INCLINATION>88.9802</INCLINATION><RA_OF_ASC_NODE>82.4012</RA_OF_ASC_NODE><ARG_OF_PERICENTER>90.0334</ARG_OF_PERICENTER><MEAN_ANOMALY>270.1686</MEAN_ANOMALY></meanElements><tleParameters><EPHEMERIS_TYPE>0</EPHEMERIS_TYPE><CLASSIFICATION_TYPE>U</CLASSIFICATION_TYPE><NORAD_CAT_ID>61559</NORAD_CAT_ID><ELEMENT_SET_NO>999</ELEMENT_SET_NO><REV_AT_EPOCH>6528</REV_AT_EPOCH><BSTAR>.40508E-3</BSTAR><MEAN_MOTION_DOT>.418E-5</MEAN_MOTION_DOT><MEAN_MOTION_DDOT>0</MEAN_MOTION_DDOT></tleParameters></data></segment></body></omm>
<omm id="CCSDS_OMM_VERS" version="2.0">
<header><CREATION_DATE/><ORIGINATOR/></header><body><segment><metadata><OBJECT_NAME>QIANFAN-27</OBJECT_NAME><OBJECT_ID>2024-185J</OBJECT_ID><CENTER_NAME>EARTH</CENTER_NAME><REF_FRAME>TEME</REF_FRAME><TIME_SYSTEM>UTC</TIME_SYSTEM><MEAN_ELEMENT_THEORY>SGP4</MEAN_ELEMENT_THEORY></metadata><data><meanElements><EPOCH>2025-11-18T03:23:12.094080</EPOCH><MEAN_MOTION>14.27289585</MEAN_MOTION><ECCENTRICITY>.0008299</ECCENTRICITY><INCLINATION>88.9797</INCLINATION><RA_OF_ASC_NODE>79.8219</RA_OF_ASC_NODE><ARG_OF_PERICENTER>25.4481</ARG_OF_PERICENTER><MEAN_ANOMALY>334.7121</MEAN_ANOMALY></meanElements><tleParameters><EPHEMERIS_TYPE>0</EPHEMERIS_TYPE><CLASSIFICATION_TYPE>U</CLASSIFICATION_TYPE><NORAD_CAT_ID>61560</NORAD_CAT_ID><ELEMENT_SET_NO>999</ELEMENT_SET_NO><REV_AT_EPOCH>6665</REV_AT_EPOCH><BSTAR>.35003E-3</BSTAR><MEAN_MOTION_DOT>.871E-5</MEAN_MOTION_DOT><MEAN_MOTION_DDOT>0</MEAN_MOTION_DDOT></tleParameters></data></segment></body></omm>
<omm id="CCSDS_OMM_VERS" version="2.0">
<header><CREATION_DATE/><ORIGINATOR/></header><body><segment><metadata><OBJECT_NAME>QIANFAN-28</OBJECT_NAME><OBJECT_ID>2024-185K</OBJECT_ID><CENTER_NAME>EARTH</CENTER_NAME><REF_FRAME>TEME</REF_FRAME><TIME_SYSTEM>UTC</TIME_SYSTEM><MEAN_ELEMENT_THEORY>SGP4</MEAN_ELEMENT_THEORY></metadata><data><meanElements><EPOCH>2025-11-18T03:14:34.576224</EPOCH><MEAN_MOTION>14.27962525</MEAN_MOTION><ECCENTRICITY>.0007528</ECCENTRICITY><INCLINATION>88.9816</INCLINATION><RA_OF_ASC_NODE>79.8238</RA_OF_ASC_NODE><ARG_OF_PERICENTER>26.3541</ARG_OF_PERICENTER><MEAN_ANOMALY>333.8035</MEAN_ANOMALY></meanElements><tleParameters><EPHEMERIS_TYPE>0</EPHEMERIS_TYPE><CLASSIFICATION_TYPE>U</CLASSIFICATION_TYPE><NORAD_CAT_ID>61561</NORAD_CAT_ID><ELEMENT_SET_NO>999</ELEMENT_SET_NO><REV_AT_EPOCH>6666</REV_AT_EPOCH><BSTAR>.58272E-3</BSTAR><MEAN_MOTION_DOT>.1458E-4</MEAN_MOTION_DOT><MEAN_MOTION_DDOT>0</MEAN_MOTION_DDOT></tleParameters></data></segment></body></omm>
<omm id="CCSDS_OMM_VERS" version="2.0">
<header><CREATION_DATE/><ORIGINATOR/></header><body><segment><metadata><OBJECT_NAME>QIANFAN-29</OBJECT_NAME><OBJECT_ID>2024-185L</OBJECT_ID><CENTER_NAME>EARTH</CENTER_NAME><REF_FRAME>TEME</REF_FRAME><TIME_SYSTEM>UTC</TIME_SYSTEM><MEAN_ELEMENT_THEORY>SGP4</MEAN_ELEMENT_THEORY></metadata><data><meanElements><EPOCH>2025-11-18T03:36:11.280384</EPOCH><MEAN_MOTION>13.50998828</MEAN_MOTION><ECCENTRICITY>.0011718</ECCENTRICITY><INCLINATION>88.9777</INCLINATION><RA_OF_ASC_NODE>83.8460</RA_OF_ASC_NODE><ARG_OF_PERICENTER>119.8009</ARG_OF_PERICENTER><MEAN_ANOMALY>240.4309</MEAN_ANOMALY></meanElements><tleParameters><EPHEMERIS_TYPE>0</EPHEMERIS_TYPE><CLASSIFICATION_TYPE>U</CLASSIFICATION_TYPE><NORAD_CAT_ID>61562</NORAD_CAT_ID><ELEMENT_SET_NO>999</ELEMENT_SET_NO><REV_AT_EPOCH>6447</REV_AT_EPOCH><BSTAR>.32706E-3</BSTAR><MEAN_MOTION_DOT>.223E-5</MEAN_MOTION_DOT><MEAN_MOTION_DDOT>0</MEAN_MOTION_DDOT></tleParameters></data></segment></body></omm>
<omm id="CCSDS_OMM_VERS" version="2.0">
<header><CREATION_DATE/><ORIGINATOR/></header><body><segment><metadata><OBJECT_NAME>QIANFAN-30</OBJECT_NAME><OBJECT_ID>2024-185M</OBJECT_ID><CENTER_NAME>EARTH</CENTER_NAME><REF_FRAME>TEME</REF_FRAME><TIME_SYSTEM>UTC</TIME_SYSTEM><MEAN_ELEMENT_THEORY>SGP4</MEAN_ELEMENT_THEORY></metadata><data><meanElements><EPOCH>2025-11-18T02:33:11.663136</EPOCH><MEAN_MOTION>13.49977099</MEAN_MOTION><ECCENTRICITY>.0009245</ECCENTRICITY><INCLINATION>88.9797</INCLINATION><RA_OF_ASC_NODE>83.3664</RA_OF_ASC_NODE><ARG_OF_PERICENTER>106.9165</ARG_OF_PERICENTER><MEAN_ANOMALY>253.3000</MEAN_ANOMALY></meanElements><tleParameters><EPHEMERIS_TYPE>0</EPHEMERIS_TYPE><CLASSIFICATION_TYPE>U</CLASSIFICATION_TYPE><NORAD_CAT_ID>61563</NORAD_CAT_ID><ELEMENT_SET_NO>999</ELEMENT_SET_NO><REV_AT_EPOCH>6474</REV_AT_EPOCH><BSTAR>.48781E-3</BSTAR><MEAN_MOTION_DOT>.322E-5</MEAN_MOTION_DOT><MEAN_MOTION_DDOT>0</MEAN_MOTION_DDOT></tleParameters></data></segment></body></omm>
<omm id="CCSDS_OMM_VERS" version="2.0">
<header><CREATION_DATE/><ORIGINATOR/></header><body><segment><metadata><OBJECT_NAME>QIANFAN-31</OBJECT_NAME><OBJECT_ID>2024-185N</OBJECT_ID><CENTER_NAME>EARTH</CENTER_NAME><REF_FRAME>TEME</REF_FRAME><TIME_SYSTEM>UTC</TIME_SYSTEM><MEAN_ELEMENT_THEORY>SGP4</MEAN_ELEMENT_THEORY></metadata><data><meanElements><EPOCH>2025-11-18T03:29:47.951232</EPOCH><MEAN_MOTION>13.57953946</MEAN_MOTION><ECCENTRICITY>.0008723</ECCENTRICITY><INCLINATION>88.9781</INCLINATION><RA_OF_ASC_NODE>83.2034</RA_OF_ASC_NODE><ARG_OF_PERICENTER>102.7538</ARG_OF_PERICENTER><MEAN_ANOMALY>257.4592</MEAN_ANOMALY></meanElements><tleParameters><EPHEMERIS_TYPE>0</EPHEMERIS_TYPE><CLASSIFICATION_TYPE>U</CLASSIFICATION_TYPE><NORAD_CAT_ID>61564</NORAD_CAT_ID><ELEMENT_SET_NO>999</ELEMENT_SET_NO><REV_AT_EPOCH>6482</REV_AT_EPOCH><BSTAR>.10025E-3</BSTAR><MEAN_MOTION_DOT>.85E-6</MEAN_MOTION_DOT><MEAN_MOTION_DDOT>0</MEAN_MOTION_DDOT></tleParameters></data></segment></body></omm>
<omm id="CCSDS_OMM_VERS" version="2.0">
<header><CREATION_DATE/><ORIGINATOR/></header><body><segment><metadata><OBJECT_NAME>QIANFAN-32</OBJECT_NAME><OBJECT_ID>2024-185P</OBJECT_ID><CENTER_NAME>EARTH</CENTER_NAME><REF_FRAME>TEME</REF_FRAME><TIME_SYSTEM>UTC</TIME_SYSTEM><MEAN_ELEMENT_THEORY>SGP4</MEAN_ELEMENT_THEORY></metadata><data><meanElements><EPOCH>2025-11-18T03:53:59.612928</EPOCH><MEAN_MOTION>13.50723194</MEAN_MOTION><ECCENTRICITY>.0010916</ECCENTRICITY><INCLINATION>88.9841</INCLINATION><RA_OF_ASC_NODE>83.4873</RA_OF_ASC_NODE><ARG_OF_PERICENTER>129.8238</ARG_OF_PERICENTER><MEAN_ANOMALY>230.3875</MEAN_ANOMALY></meanElements><tleParameters><EPHEMERIS_TYPE>0</EPHEMERIS_TYPE><CLASSIFICATION_TYPE>U</CLASSIFICATION_TYPE><NORAD_CAT_ID>61565</NORAD_CAT_ID><ELEMENT_SET_NO>999</ELEMENT_SET_NO><REV_AT_EPOCH>6472</REV_AT_EPOCH><BSTAR>.26757E-3</BSTAR><MEAN_MOTION_DOT>.184E-5</MEAN_MOTION_DOT><MEAN_MOTION_DDOT>0</MEAN_MOTION_DDOT></tleParameters></data></segment></body></omm>

</ndm>
