QIANFAN-25              
1 61558U 24185G   25322.09664795  .00000648  00000+0  38811-3 0  9996
2 61558  88.9802  80.9724 0010521  34.7797 325.4071 14.05877797 66041
QIANFAN-26              
1 61559U 24185H   25322.12917209  .00000418  00000+0  40508-3 0  9993
2 61559  88.9802  82.4012 0007452  90.0334 270.1686 13.77791613 65283
QIANFAN-27              
1 61560U 24185J   25322.14111220  .00000871  00000+0  35003-3 0  9993
2 61560  88.9797  79.8219 0008299  25.4481 334.7121 14.27289585 66651
QIANFAN-28              
1 61561U 24185K   25322.13512241  .00001458  00000+0  58272-3 0  9996
2 61561  88.9816  79.8238 0007528  26.3541 333.8035 14.27962525 66663
QIANFAN-29              
1 61562U 24185L   25322.15013056  .00000223  00000+0  32706-3 0  9992
2 61562  88.9777  83.8460 0011718 119.8009 240.4309 13.50998828 64479
QIANFAN-30              
1 61563U 24185M   25322.10638499  .00000322  00000+0  48781-3 0  9992
2 61563  88.9797  83.3664 0009245 106.9165 253.3000 13.49977099 64741
QIANFAN-31              
1 61564U 24185N   25322.14569388  .00000085  00000+0  10025-3 0  9993
2 61564  88.9781  83.2034 0008723 102.7538 257.4592 13.57953946 64827
QIANFAN-32              
1 61565U 24185P   25322.16249552  .00000184  00000+0  26757-3 0  9993
2 61565  88.9841  83.4873 0010916 129.8238 230.3875 13.50723194 64728
